OBJECT_NAME,OBJECT_ID,EPOCH,MEAN_MOTION,ECCENTRICITY,INCLINATION,RA_OF_ASC_NODE,ARG_OF_PERICENTER,MEAN_ANOMALY,EPHEMERIS_TYPE,CLASSIFICATION_TYPE,NORAD_CAT_ID,ELEMENT_SET_NO,REV_AT_EPOCH,BSTAR,MEAN_MOTION_DOT,MEAN_MOTION_DDOT
LEMUR-2-EMERSONROSE,2025-052BD,2026-07-07T02:48:31.296960,14.99240564,.0002747,97.6870,81.1613,74.2214,285.9312,0,U,63261,999,7172,.3082E-3,.3699E-4,0
LEMUR-2-MARACHE-FRAN,2025-052BE,2026-07-07T03:29:13.335936,15.00280659,.0004512,97.6865,81.5468,290.2178,69.8560,0,U,63262,999,7175,.22321E-3,.2737E-4,0
SOAP,2025-052BF,2026-07-07T03:31:32.342304,14.96899339,.0000684,97.6836,80.1183,295.1022,65.0129,0,U,63263,999,7167,.14074E-3,.1558E-4,0
LEMUR-2-THEFALCONER,2025-052BG,2026-07-07T02:58:37.316064,14.97533628,.0000931,97.6845,80.1714,26.9375,333.1895,0,U,63264,999,7167,.28661E-3,.3286E-4,0
STARLINK-11654 [DTC],2025-053A,2026-07-06T04:03:24.083136,15.70899258,.00018706,43.0004,118.0375,256.4079,103.6581,0,U,63265,999,7630,.15391513E-2,.202435E-2,0
STARLINK-11659 [DTC],2025-053B,2026-07-07T04:20:40.756992,15.71054878,.0002909,43.0000,111.8620,285.9624,74.0923,0,U,63266,999,7646,.18485E-2,.246131E-2,0
STARLINK-11653 [DTC],2025-053C,2026-07-07T03:27:21.244032,15.71118286,.0002384,42.9990,112.4575,294.6573,65.4046,0,U,63267,999,7645,.1682E-2,.223907E-2,0
STARLINK-11641 [DTC],2025-053D,2026-07-07T03:57:44.379072,15.70836434,.0002433,43.0002,111.7339,270.1575,89.9014,0,U,63268,999,7646,.97343E-3,.12636E-2,0
STARLINK-11638 [DTC],2025-053E,2026-07-07T04:05:23.532000,15.71040249,.000161,43.0011,111.7744,305.3766,54.6951,0,U,63269,999,7646,.10538E-2,.138196E-2,0
STARLINK-11614 [DTC],2025-053F,2026-07-05T23:51:39.849408,15.70864208,.00027688,43.0008,119.3162,280.6676,79.3880,0,U,63270,999,7627,.20252871E-2,.268271E-2,0
STARLINK-11620 [DTC],2025-053G,2026-07-07T03:42:39.259584,15.71004986,.0002716,42.9991,112.5461,10.5926,349.4998,0,U,63271,999,7645,.13815E-2,.182019E-2,0
STARLINK-11619 [DTC],2025-053H,2026-07-06T05:42:35.977824,15.70923263,.00019589,42.9993,117.6968,242.7355,117.3313,0,U,63272,999,7631,.1552476E-2,.204448E-2,0
STARLINK-11621 [DTC],2025-053J,2026-07-06T06:28:17.302080,15.70892336,.00013448,42.9995,117.0576,293.4741,66.5985,0,U,63273,999,7632,.14419978E-2,.189268E-2,0
STARLINK-11615 [DTC],2025-053K,2026-07-06T04:18:41.486976,15.70912136,.00016419,43.0005,118.1245,263.1047,96.9634,0,U,63274,999,7630,.16329179E-2,.215244E-2,0
STARLINK-11608 [DTC],2025-053L,2026-07-06T05:19:39.895392,15.70901742,.00016267,43.0006,117.5711,252.9318,107.1371,0,U,63275,999,7630,.15426295E-2,.202925E-2,0
STARLINK-11623 [DTC],2025-053M,2026-07-07T03:34:59.303136,15.71059854,.0003457,43.0006,112.4992,250.6681,109.3813,0,U,63276,999,7644,.1221E-2,.160798E-2,0
STARLINK-33660,2025-053P,2026-07-05T23:51:56.966976,15.27504835,.00014471,42.9983,293.9161,278.9137,81.1551,0,U,63278,999,7428,.65324242E-3,.17716E-3,0
STARLINK-33611,2025-053Q,2026-07-05T07:22:55.839072,15.27617790,.000039,42.9958,293.8959,133.8296,226.2588,0,U,63279,999,7433,.15281E-2,.42078E-3,0
STARLINK-33646,2025-053R,2026-07-06T08:25:04.878624,15.27560908,.00018172,43.0038,291.4274,283.2089,76.8560,0,U,63280,999,7434,.131122E-2,.35975E-3,0
STARLINK-33665,2025-053S,2026-07-06T07:53:37.537152,15.27558924,.0002148,43.0050,291.2581,282.6602,77.4010,0,U,63281,999,7434,.15067981E-2,.41409E-3,0
STARLINK-33603,2025-053T,2026-07-06T07:48:17.092512,15.27554822,.00016136,43.0011,292.0782,275.6460,84.4207,0,U,63282,999,7433,.12240315E-2,.33548E-3,0
STARLINK-33669,2025-053U,2026-07-06T08:04:43.721760,15.27552793,.00017268,43.0035,291.3164,280.5642,79.5015,0,U,63283,999,7434,.12270654E-2,.3363E-3,0
STARLINK-33673,2025-053V,2026-07-07T02:00:03.000384,15.27597906,.0001434,43.0004,279.7153,266.5179,70.7108,0,U,63284,999,537,.9912E-3,.27129E-3,0
STARLINK-33662,2025-053W,2026-07-06T08:36:11.210112,15.27552941,.00016385,43.0049,291.4865,276.4223,83.6442,0,U,63285,999,7434,.93725696E-3,.25597E-3,0
STARLINK-33613,2025-053X,2026-07-05T23:42:41.313888,15.27537264,.00022221,43.0023,293.8659,275.6356,84.4243,0,U,63286,999,7428,.14098614E-2,.38688E-3,0
STARLINK-33680,2025-053Y,2026-07-06T08:13:58.906560,15.27543643,.00019987,43.0030,291.3681,276.5844,83.4780,0,U,63287,999,7439,.98472136E-3,.26905E-3,0
COSMOS 2585 (RODNIK-S 19),2025-054A,2026-07-07T04:24:12.316032,12.42867957,.0024703,82.4927,66.1952,354.0472,6.0310,0,U,63288,999,5934,.69618E-4,.19E-6,0
COSMOS 2586 (RODNIK-S 20),2025-054B,2026-07-07T03:48:17.449920,12.42877668,.0020957,82.4916,66.1104,342.6865,17.3498,0,U,63289,999,5933,-.27882E-4,.6E-7,0
COSMOS 2587 (RODNIK-S 21),2025-054C,2026-07-07T05:03:05.713920,12.42893588,.0014681,82.4968,66.2540,332.6148,27.4157,0,U,63290,999,5934,.43236E-4,.16E-6,0
2025-055A,2025-055A,2026-07-06T07:01:53.332032,15.13520438,.00222937,97.6557,327.3308,40.2048,320.0827,0,U,63291,999,7194,.26766792E-3,.4755E-4,0
