LEMUR-2-EMERSONROSE     
1 63261U 25052BD  26188.11702890  .00003699  00000+0  30820-3 0  9997
2 63261  97.6870  81.1613 0002747  74.2214 285.9312 14.99240564 71728
LEMUR-2-MARACHE-FRAN    
1 63262U 25052BE  26188.14529324  .00002737  00000+0  22321-3 0  9999
2 63262  97.6865  81.5468 0004512 290.2178  69.8560 15.00280659 71755
SOAP                    
1 63263U 25052BF  26188.14690211  .00001558  00000+0  14074-3 0  9990
2 63263  97.6836  80.1183 0000684 295.1022  65.0129 14.96899339 71676
LEMUR-2-THEFALCONER     
1 63264U 25052BG  26188.12404301  .00003286  00000+0  28661-3 0  9999
2 63264  97.6845  80.1714 0000931  26.9375 333.1895 14.97533628 71679
STARLINK-11654 [DTC]    
1 63265U 25053A   26187.16902874  .00202435  00000+0  15392-2 0  9995
2 63265  43.0004 118.0375 0001870 256.4079 103.6581 15.70899258 76303
STARLINK-11659 [DTC]    
1 63266U 25053B   26188.18102728  .00246131  00000+0  18485-2 0  9996
2 63266  43.0000 111.8620 0002909 285.9624  74.0923 15.71054878 76461
STARLINK-11653 [DTC]    
1 63267U 25053C   26188.14399588  .00223907  00000+0  16820-2 0  9992
2 63267  42.9990 112.4575 0002384 294.6573  65.4046 15.71118286 76454
STARLINK-11641 [DTC]    
1 63268U 25053D   26188.16509698  .00126360  00000+0  97343-3 0  9995
2 63268  43.0002 111.7339 0002433 270.1575  89.9014 15.70836434 76465
STARLINK-11638 [DTC]    
1 63269U 25053E   26188.17041125  .00138196  00000+0  10538-2 0  9993
2 63269  43.0011 111.7744 0001610 305.3766  54.6951 15.71040249 76466
STARLINK-11614 [DTC]    
1 63270U 25053F   26186.99421122  .00268271  00000+0  20253-2 0  9995
2 63270  43.0008 119.3162 0002768 280.6676  79.3880 15.70864208 76274
STARLINK-11620 [DTC]    
1 63271U 25053G   26188.15462106  .00182019  00000+0  13815-2 0  9994
2 63271  42.9991 112.5461 0002716  10.5926 349.4998 15.71004986 76453
STARLINK-11619 [DTC]    
1 63272U 25053H   26187.23791641  .00204448  00000+0  15525-2 0  9993
2 63272  42.9993 117.6968 0001958 242.7355 117.3313 15.70923263 76311
STARLINK-11621 [DTC]    
1 63273U 25053J   26187.26964470  .00189268  00000+0  14420-2 0  9994
2 63273  42.9995 117.0576 0001344 293.4741  66.5985 15.70892336 76321
STARLINK-11615 [DTC]    
1 63274U 25053K   26187.17964684  .00215244  00000+0  16329-2 0  9996
2 63274  43.0005 118.1245 0001641 263.1047  96.9634 15.70912136 76301
STARLINK-11608 [DTC]    
1 63275U 25053L   26187.22198953  .00202925  00000+0  15426-2 0  9990
2 63275  43.0006 117.5711 0001626 252.9318 107.1371 15.70901742 76308
STARLINK-11623 [DTC]    
1 63276U 25053M   26188.14929749  .00160798  00000+0  12210-2 0  9997
2 63276  43.0006 112.4992 0003457 250.6681 109.3813 15.71059854 76445
STARLINK-33660          
1 63278U 25053P   26186.99440934  .00017716  00000+0  65324-3 0  9990
2 63278  42.9983 293.9161 0001447 278.9137  81.1551 15.27504835 74289
STARLINK-33611          
1 63279U 25053Q   26186.30759073  .00042078  00000+0  15281-2 0  9998
2 63279  42.9958 293.8959 0000390 133.8296 226.2588 15.27617790 74330
STARLINK-33646          
1 63280U 25053R   26187.35075091  .00035975  00000+0  13112-2 0  9996
2 63280  43.0038 291.4274 0001817 283.2089  76.8560 15.27560908 74340
STARLINK-33665          
1 63281U 25053S   26187.32890668  .00041409  00000+0  15068-2 0  9990
2 63281  43.0050 291.2581 0002148 282.6602  77.4010 15.27558924 74348
STARLINK-33603          
1 63282U 25053T   26187.32519783  .00033548  00000+0  12240-2 0  9991
2 63282  43.0011 292.0782 0001613 275.6460  84.4207 15.27554822 74336
STARLINK-33669          
1 63283U 25053U   26187.33661715  .00033630  00000+0  12271-2 0  9992
2 63283  43.0035 291.3164 0001726 280.5642  79.5015 15.27552793 74349
STARLINK-33673          
1 63284U 25053V   26188.08336806  .00027129  00000+0  99120-3 0  9991
2 63284  43.0004 279.7153 0001434 266.5179  70.7108 15.27597906  5377
STARLINK-33662          
1 63285U 25053W   26187.35846308  .00025597  00000+0  93726-3 0  9997
2 63285  43.0049 291.4865 0001638 276.4223  83.6442 15.27552941 74341
STARLINK-33613          
1 63286U 25053X   26186.98797817  .00038688  00000+0  14099-2 0  9996
2 63286  43.0023 293.8659 0002222 275.6356  84.4243 15.27537264 74281
STARLINK-33680          
1 63287U 25053Y   26187.34304290  .00026905  00000+0  98472-3 0  9994
2 63287  43.0030 291.3681 0001998 276.5844  83.4780 15.27543643 74394
COSMOS 2585 (RODNIK-S *)
1 63288U 25054A   26188.18347588  .00000019  00000+0  69618-4 0  9995
2 63288  82.4927  66.1952 0024703 354.0472   6.0310 12.42867957 59343
COSMOS 2586 (RODNIK-S *)
1 63289U 25054B   26188.15853530  .00000006  00000+0 -27882-4 0  9996
2 63289  82.4916  66.1104 0020957 342.6865  17.3498 12.42877668 59338
COSMOS 2587 (RODNIK-S *)
1 63290U 25054C   26188.21048280  .00000016  00000+0  43236-4 0  9994
2 63290  82.4968  66.2540 0014681 332.6148  27.4157 12.42893588 59346
2025-055A               
1 63291U 25055A   26187.29297838  .00004755  00000+0  26767-3 0  9991
2 63291  97.6557 327.3308 0022293  40.2048 320.0827 15.13520438 71949
